{
  "type": "FeatureCollection",
  "features": [
    {
      "type": "Feature",
      "properties": {
        "norad_id": 66385,
        "name": "STARLINK-35659",
        "group": "last-30-days",
        "lat": 8.085215914901868,
        "lon": 122.2412709231714,
        "alt_km": 446.77964558345593,
        "timestamp": "2025-12-03T10:52:56.220846+00:00",
        "meta_object_name": "STARLINK-35659",
        "meta_object_id": "2025-257F",
        "meta_epoch": "2025-12-03T04:00:01.998720",
        "meta_mean_motion": 15.39585813,
        "meta_eccentricity": 0.0001422,
        "meta_inclination": 53.1591,
        "meta_ra_of_asc_node": 309.7067,
        "meta_arg_of_pericenter": 96.9328,
        "meta_mean_anomaly": 282.6746,
        "meta_ephemeris_type": 0,
        "meta_classification_type": "U",
        "meta_norad_cat_id": 66385,
        "meta_element_set_no": 999,
        "meta_rev_at_epoch": 495,
        "meta_bstar": 0.00060613,
        "meta_mean_motion_dot": 0.00023894,
        "meta_mean_motion_ddot": 0,
        "tle_line1": "1 66385U 25257F   25337.16668980  .00023894  00000+0  60613-3 0  9997",
        "tle_line2": "2 66385  53.1591 309.7067 0001422  96.9328 282.6746 15.39585813  4953"
      },
      "geometry": {
        "type": "Point",
        "coordinates": [
          122.2412709231714,
          8.085215914901868
        ]
      }
    },
    {
      "type": "Feature",
      "properties": {
        "norad_id": 66386,
        "name": "STARLINK-35651",
        "group": "last-30-days",
        "lat": -27.47616066412696,
        "lon": 151.21238875877404,
        "alt_km": 441.592798022074,
        "timestamp": "2025-12-03T10:52:56.220857+00:00",
        "meta_object_name": "STARLINK-35651",
        "meta_object_id": "2025-257G",
        "meta_epoch": "2025-12-03T04:00:01.998720",
        "meta_mean_motion": 15.44220409,
        "meta_eccentricity": 0.0001152,
        "meta_inclination": 53.1592,
        "meta_ra_of_asc_node": 309.6241,
        "meta_arg_of_pericenter": 84.9277,
        "meta_mean_anomaly": 335.9279,
        "meta_ephemeris_type": 0,
        "meta_classification_type": "U",
        "meta_norad_cat_id": 66386,
        "meta_element_set_no": 999,
        "meta_rev_at_epoch": 495,
        "meta_bstar": -0.04994,
        "meta_mean_motion_dot": -0.02068814,
        "meta_mean_motion_ddot": 0,
        "tle_line1": "1 66386U 25257G   25337.16668980 -.02068814  00000+0 -49940-1 0  9991",
        "tle_line2": "2 66386  53.1592 309.6241 0001152  84.9277 335.9279 15.44220409  4954"
      },
      "geometry": {
        "type": "Point",
        "coordinates": [
          151.21238875877404,
          -27.47616066412696
        ]
      }
    },
    {
      "type": "Feature",
      "properties": {
        "norad_id": 66387,
        "name": "STARLINK-35661",
        "group": "last-30-days",
        "lat": -28.83833196799416,
        "lon": 152.64396480000954,
        "alt_km": 441.69155194324867,
        "timestamp": "2025-12-03T10:52:56.220869+00:00",
        "meta_object_name": "STARLINK-35661",
        "meta_object_id": "2025-257H",
        "meta_epoch": "2025-12-03T04:00:01.998720",
        "meta_mean_motion": 15.44211001,
        "meta_eccentricity": 0.0001121,
        "meta_inclination": 53.1594,
        "meta_ra_of_asc_node": 309.6212,
        "meta_arg_of_pericenter": 88.6668,
        "meta_mean_anomaly": 334.0602,
        "meta_ephemeris_type": 0,
        "meta_classification_type": "U",
        "meta_norad_cat_id": 66387,
        "meta_element_set_no": 999,
        "meta_rev_at_epoch": 495,
        "meta_bstar": -0.050032,
        "meta_mean_motion_dot": -0.0207159,
        "meta_mean_motion_ddot": 0,
        "tle_line1": "1 66387U 25257H   25337.16668980 -.02071590  00000+0 -50032-1 0  9991",
        "tle_line2": "2 66387  53.1594 309.6212 0001121  88.6668 334.0602 15.44211001  4954"
      },
      "geometry": {
        "type": "Point",
        "coordinates": [
          152.64396480000954,
          -28.83833196799416
        ]
      }
    },
    {
      "type": "Feature",
      "properties": {
        "norad_id": 66388,
        "name": "STARLINK-35647",
        "group": "last-30-days",
        "lat": -37.98528415306777,
        "lon": 164.07009000845966,
        "alt_km": 433.95553830821063,
        "timestamp": "2025-12-03T10:52:56.220879+00:00",
        "meta_object_name": "STARLINK-35647",
        "meta_object_id": "2025-257J",
        "meta_epoch": "2025-12-03T04:00:01.998720",
        "meta_mean_motion": 15.4706062,
        "meta_eccentricity": 0.0001027,
        "meta_inclination": 53.159,
        "meta_ra_of_asc_node": 309.6003,
        "meta_arg_of_pericenter": 85.514,
        "meta_mean_anomaly": 347.4982,
        "meta_ephemeris_type": 0,
        "meta_classification_type": "U",
        "meta_norad_cat_id": 66388,
        "meta_element_set_no": 999,
        "meta_rev_at_epoch": 495,
        "meta_bstar": -0.045463,
        "meta_mean_motion_dot": -0.02076863,
        "meta_mean_motion_ddot": 0,
        "tle_line1": "1 66388U 25257J   25337.16668980 -.02076863  00000+0 -45463-1 0  9992",
        "tle_line2": "2 66388  53.1590 309.6003 0001027  85.5140 347.4982 15.47060620  4956"
      },
      "geometry": {
        "type": "Point",
        "coordinates": [
          164.07009000845966,
          -37.98528415306777
        ]
      }
    },
    {
      "type": "Feature",
      "properties": {
        "norad_id": 66389,
        "name": "STARLINK-35694",
        "group": "last-30-days",
        "lat": -42.32332519130374,
        "lon": 171.27982668089,
        "alt_km": 424.24187150345006,
        "timestamp": "2025-12-03T10:52:56.220891+00:00",
        "meta_object_name": "STARLINK-35694",
        "meta_object_id": "2025-257K",
        "meta_epoch": "2025-12-03T03:40:10.970400",
        "meta_mean_motion": 15.49284998,
        "meta_eccentricity": 0.0001704,
        "meta_inclination": 53.159,
        "meta_ra_of_asc_node": 309.6562,
        "meta_arg_of_pericenter": 84.6284,
        "meta_mean_anomaly": 275.4919,
        "meta_ephemeris_type": 0,
        "meta_classification_type": "U",
        "meta_norad_cat_id": 66389,
        "meta_element_set_no": 999,
        "meta_rev_at_epoch": 489,
        "meta_bstar": 0.0007044,
        "meta_mean_motion_dot": 0.0003889,
        "meta_mean_motion_ddot": 0,
        "tle_line1": "1 66389U 25257K   25337.15290475  .00038890  00000+0  70440-3 0  9991",
        "tle_line2": "2 66389  53.1590 309.6562 0001704  84.6284 275.4919 15.49284998  4899"
      },
      "geometry": {
        "type": "Point",
        "coordinates": [
          171.27982668089,
          -42.32332519130374
        ]
      }
    },
    {
      "type": "Feature",
      "properties": {
        "norad_id": 66390,
        "name": "STARLINK-35665",
        "group": "last-30-days",
        "lat": -53.10427603251521,
        "lon": -138.96849822400722,
        "alt_km": 424.19876834827846,
        "timestamp": "2025-12-03T10:52:56.220901+00:00",
        "meta_object_name": "STARLINK-35665",
        "meta_object_id": "2025-257L",
        "meta_epoch": "2025-12-03T03:31:18.139872",
        "meta_mean_motion": 15.49342842,
        "meta_eccentricity": 0.0001364,
        "meta_inclination": 53.1588,
        "meta_ra_of_asc_node": 309.6142,
        "meta_arg_of_pericenter": 93.2305,
        "meta_mean_anomaly": 266.886,
        "meta_ephemeris_type": 0,
        "meta_classification_type": "U",
        "meta_norad_cat_id": 66390,
        "meta_element_set_no": 999,
        "meta_rev_at_epoch": 499,
        "meta_bstar": 0.001874,
        "meta_mean_motion_dot": 0.00105316,
        "meta_mean_motion_ddot": 0,
        "tle_line1": "1 66390U 25257L   25337.14673773  .00105316  00000+0  18740-2 0  9990",
        "tle_line2": "2 66390  53.1588 309.6142 0001364  93.2305 266.8860 15.49342842  4997"
      },
      "geometry": {
        "type": "Point",
        "coordinates": [
          -138.96849822400722,
          -53.10427603251521
        ]
      }
    },
    {
      "type": "Feature",
      "properties": {
        "norad_id": 66391,
        "name": "STARLINK-35656",
        "group": "last-30-days",
        "lat": -53.129295048141934,
        "lon": -140.28429855598677,
        "alt_km": 453.0703243614662,
        "timestamp": "2025-12-03T10:52:56.220913+00:00",
        "meta_object_name": "STARLINK-35656",
        "meta_object_id": "2025-257M",
        "meta_epoch": "2025-12-03T04:00:01.998720",
        "meta_mean_motion": 15.39591037,
        "meta_eccentricity": 0.000154,
        "meta_inclination": 53.1592,
        "meta_ra_of_asc_node": 309.4906,
        "meta_arg_of_pericenter": 68.111,
        "meta_mean_anomaly": 52.6811,
        "meta_ephemeris_type": 0,
        "meta_classification_type": "U",
        "meta_norad_cat_id": 66391,
        "meta_element_set_no": 999,
        "meta_rev_at_epoch": 505,
        "meta_bstar": 0.00072848,
        "meta_mean_motion_dot": 0.00028821,
        "meta_mean_motion_ddot": 0,
        "tle_line1": "1 66391U 25257M   25337.16668980  .00028821  00000+0  72848-3 0  9992",
        "tle_line2": "2 66391  53.1592 309.4906 0001540  68.1110  52.6811 15.39591037  5056"
      },
      "geometry": {
        "type": "Point",
        "coordinates": [
          -140.28429855598677,
          -53.129295048141934
        ]
      }
    }
  ]
}